NORAD_CAT_ID,OBJECT_NAME,OBJECT_TYPE,EPOCH,MEAN_MOTION,ECCENTRICITY,INCLINATION,RA_OF_ASC_NODE,ARG_OF_PERICENTER,MEAN_ANOMALY,BSTAR,MEAN_MOTION_DOT,MEAN_MOTION_DDOT,TLE_LINE0,TLE_LINE1,TLE_LINE2,SEMIMAJOR_AXIS,PERIOD,APOGEE,PERIGEE,DECAYED
49442.0,STARLINK-3098,PAYLOAD,2023-02-13 21:30:06,15.08861781,0.0001415,53.2142,196.0732,96.3338,263.7815,0.0015867,0.0002507,0.0,0 STARLINK-3098,1 49442U 21104AL  23044.89591236  .00025070  00000-0  15867-2 0  9990,2 49442  53.2142 196.0732 0001415  96.3338 263.7815 15.08861781 70940,6917.814,95.436,540.658,538.7,0.0
49442.0,STARLINK-3098,PAYLOAD,2023-02-14 13:23:58,15.08851632,0.0001261,53.2135,193.0991,128.0412,232.0694,0.0013172,0.00020744,0.0,0 STARLINK-3098,1 49442U 21104AL  23045.55831181  .00020744  00000-0  13172-2 0  9990,2 49442  53.2135 193.0991 0001261 128.0412 232.0694 15.08851632 69969,6917.845,95.437,540.582,538.837,0.0
49442.0,STARLINK-3098,PAYLOAD,2023-02-14 16:34:44,15.08862141,0.0001093,53.2139,192.506,93.7349,266.3768,0.0020562,0.00032608,0.0,0 STARLINK-3098,1 49442U 21104AL  23045.69079239  .00032608  00000-0  20562-2 0  9996,2 49442  53.2139 192.5060 0001093  93.7349 266.3768 15.08862141 71067,6917.813,95.436,540.434,538.922,0.0
49442.0,STARLINK-3098,PAYLOAD,2023-02-15 02:07:03,15.08824234,0.0002554,53.2142,190.7157,98.1684,261.9598,0.00033445,5.036e-05,0.0,0 STARLINK-3098,1 49442U 21104AL  23046.08823764  .00005036  00000-0  33445-3 0  9990,2 49442  53.2142 190.7157 0002554  98.1684 261.9598 15.08824234 71122,6917.929,95.439,541.56,538.027,0.0
49442.0,STARLINK-3098,PAYLOAD,2023-02-15 13:14:45,15.08853742,0.0001131,53.2144,188.6373,101.9487,258.1632,0.0021253,0.00033711,0.0,0 STARLINK-3098,1 49442U 21104AL  23046.55191244  .00033711  00000-0  21253-2 0  9997,2 49442  53.2144 188.6373 0001131 101.9487 258.1632 15.08853742 71194,6917.838,95.437,540.486,538.921,0.0
49442.0,STARLINK-3098,PAYLOAD,2023-02-15 21:11:40,15.08888119,0.0001036,53.2138,187.1505,91.7029,268.4081,0.002965,0.00047279,0.0,0 STARLINK-3098,1 49442U 21104AL  23046.88310475  .00047279  00000-0  29650-2 0  9995,2 49442  53.2138 187.1505 0001036  91.7029 268.4081 15.08888119 70164,6917.733,95.435,540.315,538.882,0.0
49442.0,STARLINK-3098,PAYLOAD,2023-02-16 08:19:22,15.08854716,9.07e-05,53.2141,185.0714,83.1983,276.9113,0.0010198,0.00015986,0.0,0 STARLINK-3098,1 49442U 21104AL  23047.34678620  .00015986  00000-0  10198-2 0  9993,2 49442  53.2141 185.0714 0000907  83.1983 276.9113 15.08854716 71311,6917.835,95.437,540.328,539.073,0.0
49442.0,STARLINK-3098,PAYLOAD,2023-02-16 13:05:31,15.08860341,0.0001041,53.2137,184.1769,103.8762,256.2346,0.001517,0.00023951,0.0,0 STARLINK-3098,1 49442U 21104AL  23047.54550448  .00023951  00000-0  15170-2 0  9998,2 49442  53.2137 184.1769 0001041 103.8762 256.2346 15.08860341 70264,6917.818,95.436,540.403,538.963,0.0
49442.0,STARLINK-3098,PAYLOAD,2023-02-16 19:27:03,15.08878087,9.32e-05,53.214,182.9886,71.911,288.1983,0.0024847,0.00039519,0.0,0 STARLINK-3098,1 49442U 21104AL  23047.81046116  .00039519  00000-0  24847-2 0  9998,2 49442  53.2140 182.9886 0000932  71.9110 288.1983 15.08878087 70306,6917.764,95.435,540.274,538.984,0.0
49442.0,STARLINK-3098,PAYLOAD,2023-02-17 12:56:19,15.08832385,8.85e-05,53.2126,179.716,105.3587,254.7503,0.0012014,0.0001888,0.0,0 STARLINK-3098,1 49442U 21104AL  23048.53911292  .00018880  00000-0  12014-2 0  9995,2 49442  53.2126 179.7160 0000885 105.3587 254.7503 15.08832385 71495,6917.904,95.438,540.381,539.156,0.0
49442.0,STARLINK-3098,PAYLOAD,2023-02-17 20:53:15,15.08843461,9.51e-05,53.2127,178.2292,97.5508,262.5593,0.0016216,0.00025616,0.0,0 STARLINK-3098,1 49442U 21104AL  23048.87031500  .00025616  00000-0  16216-2 0  9990,2 49442  53.2127 178.2292 0000951  97.5508 262.5593 15.08843461 70464,6917.87,95.437,540.393,539.077,0.0
49442.0,STARLINK-3098,PAYLOAD,2023-02-18 08:00:58,15.08808216,0.000117,53.2132,176.1487,110.6731,249.4387,0.0010198,0.00015965,0.0,0 STARLINK-3098,1 49442U 21104AL  23049.33400612  .00015965  00000-0  10198-2 0  9995,2 49442  53.2132 176.1487 0001170 110.6731 249.4387 15.08808216 71614,6917.978,95.44,540.652,539.033,0.0
49442.0,STARLINK-3098,PAYLOAD,2023-02-18 14:22:30,15.08831085,0.0001223,53.2127,174.9586,102.5918,257.5211,0.0017539,0.00027729,0.0,0 STARLINK-3098,1 49442U 21104AL  23049.59896779  .00027729  00000-0  17539-2 0  9993,2 49442  53.2127 174.9586 0001223 102.5918 257.5211 15.08831085 70570,6917.908,95.438,540.619,538.927,0.0
49442.0,STARLINK-3098,PAYLOAD,2023-02-18 20:44:03,15.08848332,0.0001125,53.2126,173.7686,99.5837,260.5282,0.0018115,0.00028666,0.0,0 STARLINK-3098,1 49442U 21104AL  23049.86392710  .00028666  00000-0  18115-2 0  9991,2 49442  53.2126 173.7686 0001125  99.5837 260.5282 15.08848332 71692,6917.855,95.437,540.498,538.942,0.0
49442.0,STARLINK-3098,PAYLOAD,2023-02-19 01:30:12,15.08841831,5.53e-05,53.2143,172.8767,122.3413,237.7633,0.0010878,0.00017068,0.0,0 STARLINK-3098,1 49442U 21104AL  23050.06264549  .00017068  00000-0  10878-2 0  9995,2 49442  53.2143 172.8767 0000553 122.3413 237.7633 15.08841831 71727,6917.875,95.437,540.122,539.357,0.0
49442.0,STARLINK-3098,PAYLOAD,2023-02-19 14:13:17,15.08865242,0.0001172,53.2134,170.4981,90.1209,269.9918,0.0017831,0.00028224,0.0,0 STARLINK-3098,1 49442U 21104AL  23050.59256466  .00028224  00000-0  17831-2 0  9994,2 49442  53.2134 170.4981 0001172  90.1209 269.9918 15.08865242 70726,6917.803,95.436,540.479,538.857,0.0
49442.0,STARLINK-3098,PAYLOAD,2023-02-20 07:42:31,15.08846351,0.0001382,53.2136,167.2264,92.5246,267.5904,0.00034267,5.171e-05,0.0,0 STARLINK-3098,1 49442U 21104AL  23051.32120265  .00005171  00000-0  34267-3 0  9992,2 49442  53.2136 167.2264 0001382  92.5246 267.5904 15.08846351 71917,6917.861,95.437,540.682,538.77,0.0
49442.0,STARLINK-3098,PAYLOAD,2023-02-20 14:04:04,15.08853388,0.0001576,53.2139,166.038,85.3066,274.8106,0.0016859,0.00026655,0.0,0 STARLINK-3098,1 49442U 21104AL  23051.58616411  .00026655  00000-0  16859-2 0  9999,2 49442  53.2139 166.0380 0001576  85.3066 274.8106 15.08853388 70878,6917.839,95.437,540.795,538.614,0.0
49442.0,STARLINK-3098,PAYLOAD,2023-02-21 05:57:55,15.08850322,0.000115,53.2143,163.0635,90.9461,269.1663,0.00094556,0.00014797,0.0,0 STARLINK-3098,1 49442U 21104AL  23052.24856252  .00014797  00000-0  94556-3 0  9997,2 49442  53.2143 163.0635 0001150  90.9461 269.1663 15.08850322 72054,6917.849,95.437,540.509,538.918,0.0
49442.0,STARLINK-3098,PAYLOAD,2023-02-21 12:19:28,15.08864325,0.0001508,53.2144,161.8749,90.0853,270.0312,0.0019059,0.00030195,0.0,0 STARLINK-3098,1 49442U 21104AL  23052.51352103  .00030195  00000-0  19059-2 0  9997,2 49442  53.2144 161.8749 0001508  90.0853 270.0312 15.08864325 71015,6917.806,95.436,540.714,538.628,0.0
49442.0,STARLINK-3098,PAYLOAD,2023-02-21 18:41:00,15.08880932,0.0001557,53.2143,160.6842,99.9801,260.1367,0.0021893,0.00034766,0.0,0 STARLINK-3098,1 49442U 21104AL  23052.77847462  .00034766  00000-0  21893-2 0  9999,2 49442  53.2143 160.6842 0001557  99.9801 260.1367 15.08880932 72136,6917.755,95.435,540.697,538.543,0.0
49442.0,STARLINK-3098,PAYLOAD,2023-02-22 10:34:51,15.08849007,0.0001482,53.2145,157.7123,101.5074,258.6085,0.0015908,0.00025127,0.0,0 STARLINK-3098,1 49442U 21104AL  23053.44087887  .00025127  00000-0  15908-2 0  9992,2 49442  53.2145 157.7123 0001482 101.5074 258.6085 15.08849007 72234,6917.853,95.437,540.743,538.693,0.0
49442.0,STARLINK-3098,PAYLOAD,2023-02-22 12:10:15,15.08852503,0.0001522,53.2145,157.4145,101.4875,258.6288,0.0019088,0.00030232,0.0,0 STARLINK-3098,1 49442U 21104AL  23053.50711815  .00030232  00000-0  19088-2 0  9990,2 49442  53.2145 157.4145 0001522 101.4875 258.6288 15.08852503 71169,6917.842,95.437,540.76,538.654,0.0
49442.0,STARLINK-3098,PAYLOAD,2023-02-22 18:31:47,15.0887316,0.0001575,53.2144,156.2248,101.4435,258.6734,0.0022853,0.00036303,0.0,0 STARLINK-3098,1 49442U 21104AL  23053.77207417  .00036303  00000-0  22853-2 0  9996,2 49442  53.2144 156.2248 0001575 101.4435 258.6734 15.08873160 71202,6917.779,95.435,540.734,538.554,0.0
49442.0,STARLINK-3098,PAYLOAD,2023-02-23 07:14:52,15.0883997,0.0001508,53.2141,153.8461,108.9552,251.1604,0.00075742,0.00011787,0.0,0 STARLINK-3098,1 49442U 21104AL  23054.30199958  .00011787  00000-0  75742-3 0  9991,2 49442  53.2141 153.8461 0001508 108.9552 251.1604 15.08839970 72360,6917.88,95.438,540.789,538.702,0.0
49442.0,STARLINK-3098,PAYLOAD,2023-02-23 12:01:02,15.08838716,0.000128,53.2144,152.9544,107.9585,252.1547,0.0017057,0.00026962,0.0,0 STARLINK-3098,1 49442U 21104AL  23054.50072203  .00026962  00000-0  17057-2 0  9991,2 49442  53.2144 152.9544 0001280 107.9585 252.1547 15.08838716 71315,6917.884,95.438,540.635,538.864,0.0
49442.0,STARLINK-3098,PAYLOAD,2023-02-23 16:47:11,15.08852604,0.0001241,53.2142,152.0625,103.8989,256.2141,0.0021416,0.00033972,0.0,0 STARLINK-3098,1 49442U 21104AL  23054.69944150  .00033972  00000-0  21416-2 0  9993,2 49442  53.2142 152.0625 0001241 103.8989 256.2141 15.08852604 71344,6917.842,95.437,540.565,538.848,0.0
49442.0,STARLINK-3098,PAYLOAD,2023-02-24 05:30:17,15.08850467,0.000139,53.2135,149.6841,104.0525,256.0621,0.0013743,0.00021658,0.0,0 STARLINK-3098,1 49442U 21104AL  23055.22936481  .00021658  00000-0  13743-2 0  9993,2 49442  53.2135 149.6841 0001390 104.0525 256.0621 15.08850467 72507,6917.848,95.437,540.675,538.752,0.0
49442.0,STARLINK-3098,PAYLOAD,2023-02-24 11:51:49,15.08845819,0.0001288,53.2135,148.4944,108.3971,251.7161,0.0010854,0.00017031,0.0,0 STARLINK-3098,1 49442U 21104AL  23055.49432497  .00017031  00000-0  10854-2 0  9990,2 49442  53.2135 148.4944 0001288 108.3971 251.7161 15.08845819 71466,6917.863,95.437,540.619,538.837,0.0
49442.0,STARLINK-3098,PAYLOAD,2023-02-24 16:37:58,15.08857284,0.0001256,53.2134,147.6022,104.3526,255.7605,0.0013619,0.00021463,0.0,0 STARLINK-3098,1 49442U 21104AL  23055.69304267  .00021463  00000-0  13619-2 0  9991,2 49442  53.2134 147.6022 0001256 104.3526 255.7605 15.08857284 71499,6917.828,95.436,540.561,538.824,0.0
